{"fetched_at":"2026-07-15T06:35:55.267Z","source":"https://celestrak.org/NORAD/elements/gp.php?NAME=CAPELLA&FORMAT=JSON","constellation":"capella","records":[{"OBJECT_NAME":"CAPELLA-11 (ACADIA-1)","OBJECT_ID":"2023-126A","EPOCH":"2026-07-13T02:25:45.090912","CLASSIFICATION_TYPE":"U","MEAN_MOTION":14.84908624,"ECCENTRICITY":0.00021199,"INCLINATION":53.0082,"RA_OF_ASC_NODE":72.394,"ARG_OF_PERICENTER":123.6112,"MEAN_ANOMALY":236.507,"EPHEMERIS_TYPE":0,"NORAD_CAT_ID":57693,"ELEMENT_SET_NO":999,"REV_AT_EPOCH":15597,"BSTAR":0.00028324831,"MEAN_MOTION_DOT":0.00002203,"MEAN_MOTION_DDOT":0},{"OBJECT_NAME":"CAPELLA-14 (ACADIA-4)","OBJECT_ID":"2024-066C","EPOCH":"2026-07-13T05:57:27.324288","CLASSIFICATION_TYPE":"U","MEAN_MOTION":15.08425491,"ECCENTRICITY":0.0000749,"INCLINATION":45.6044,"RA_OF_ASC_NODE":118.0658,"ARG_OF_PERICENTER":18.4375,"MEAN_ANOMALY":341.6537,"EPHEMERIS_TYPE":0,"NORAD_CAT_ID":59444,"ELEMENT_SET_NO":999,"REV_AT_EPOCH":11642,"BSTAR":0.00045541,"MEAN_MOTION_DOT":0.00006954,"MEAN_MOTION_DDOT":0},{"OBJECT_NAME":"CAPELLA-13 (ACADIA-3)","OBJECT_ID":"2024-142A","EPOCH":"2026-07-14T17:04:03.798048","CLASSIFICATION_TYPE":"U","MEAN_MOTION":14.87659816,"ECCENTRICITY":0.0001327,"INCLINATION":53.0055,"RA_OF_ASC_NODE":297.4262,"ARG_OF_PERICENTER":88.9137,"MEAN_ANOMALY":271.1995,"EPHEMERIS_TYPE":0,"NORAD_CAT_ID":60419,"ELEMENT_SET_NO":999,"REV_AT_EPOCH":10450,"BSTAR":0.0002729185,"MEAN_MOTION_DOT":0.00002272,"MEAN_MOTION_DDOT":0},{"OBJECT_NAME":"CAPELLA-15 (ACADIA-5)","OBJECT_ID":"2024-149CE","EPOCH":"2026-07-14T17:52:51.226176","CLASSIFICATION_TYPE":"U","MEAN_MOTION":14.92404933,"ECCENTRICITY":0.00033501,"INCLINATION":97.6766,"RA_OF_ASC_NODE":267.9581,"ARG_OF_PERICENTER":340.0098,"MEAN_ANOMALY":20.099,"EPHEMERIS_TYPE":0,"NORAD_CAT_ID":60544,"ELEMENT_SET_NO":999,"REV_AT_EPOCH":10396,"BSTAR":0.00022824696,"MEAN_MOTION_DOT":0.00002282,"MEAN_MOTION_DDOT":0},{"OBJECT_NAME":"CAPELLA-17 (ACADIA-7)","OBJECT_ID":"2025-135BH","EPOCH":"2026-07-14T21:52:10.651296","CLASSIFICATION_TYPE":"U","MEAN_MOTION":14.91617982,"ECCENTRICITY":0.00041271,"INCLINATION":97.7709,"RA_OF_ASC_NODE":309.1243,"ARG_OF_PERICENTER":250.9264,"MEAN_ANOMALY":109.1508,"EPHEMERIS_TYPE":0,"NORAD_CAT_ID":64583,"ELEMENT_SET_NO":999,"REV_AT_EPOCH":5798,"BSTAR":0.00031816447,"MEAN_MOTION_DOT":0.00003139,"MEAN_MOTION_DDOT":0},{"OBJECT_NAME":"CAPELLA-16 (ACADIA-6)","OBJECT_ID":"2025-188D","EPOCH":"2026-07-14T18:03:22.718592","CLASSIFICATION_TYPE":"U","MEAN_MOTION":14.94046316,"ECCENTRICITY":0.00057009,"INCLINATION":97.7379,"RA_OF_ASC_NODE":270.4912,"ARG_OF_PERICENTER":136.0748,"MEAN_ANOMALY":224.0926,"EPHEMERIS_TYPE":0,"NORAD_CAT_ID":65318,"ELEMENT_SET_NO":999,"REV_AT_EPOCH":4803,"BSTAR":0.00035029808,"MEAN_MOTION_DOT":0.00003683,"MEAN_MOTION_DDOT":0},{"OBJECT_NAME":"CAPELLA-19 (ACADIA-9)","OBJECT_ID":"2026-004X","EPOCH":"2026-07-13T22:04:27.610464","CLASSIFICATION_TYPE":"U","MEAN_MOTION":14.86655141,"ECCENTRICITY":0.00016049,"INCLINATION":97.8003,"RA_OF_ASC_NODE":192.8106,"ARG_OF_PERICENTER":96.0865,"MEAN_ANOMALY":264.0534,"EPHEMERIS_TYPE":0,"NORAD_CAT_ID":67384,"ELEMENT_SET_NO":999,"REV_AT_EPOCH":2724,"BSTAR":0.00030086045,"MEAN_MOTION_DOT":0.00002618,"MEAN_MOTION_DDOT":0},{"OBJECT_NAME":"CAPELLA-18 (ACADIA-8)","OBJECT_ID":"2026-004Y","EPOCH":"2026-07-14T22:32:45.658176","CLASSIFICATION_TYPE":"U","MEAN_MOTION":14.86651655,"ECCENTRICITY":0.00014984,"INCLINATION":97.8011,"RA_OF_ASC_NODE":193.965,"ARG_OF_PERICENTER":93.958,"MEAN_ANOMALY":266.1808,"EPHEMERIS_TYPE":0,"NORAD_CAT_ID":67385,"ELEMENT_SET_NO":999,"REV_AT_EPOCH":2740,"BSTAR":0.00031994326,"MEAN_MOTION_DOT":0.00002787,"MEAN_MOTION_DDOT":0},{"OBJECT_NAME":"CAPELLA-20 (ACADIA-10)","OBJECT_ID":"2026-067BX","EPOCH":"2026-07-14T20:42:54.729216","CLASSIFICATION_TYPE":"U","MEAN_MOTION":14.91681608,"ECCENTRICITY":0.00010041,"INCLINATION":97.7587,"RA_OF_ASC_NODE":153.7182,"ARG_OF_PERICENTER":147.0234,"MEAN_ANOMALY":213.1048,"EPHEMERIS_TYPE":0,"NORAD_CAT_ID":68485,"ELEMENT_SET_NO":999,"REV_AT_EPOCH":1585,"BSTAR":0.00026808623,"MEAN_MOTION_DOT":0.0000264,"MEAN_MOTION_DDOT":0}]}
